NORAD_CAT_ID,OBJECT_NAME,OBJECT_TYPE,EPOCH,MEAN_MOTION,ECCENTRICITY,INCLINATION,RA_OF_ASC_NODE,ARG_OF_PERICENTER,MEAN_ANOMALY,BSTAR,MEAN_MOTION_DOT,MEAN_MOTION_DDOT,TLE_LINE0,TLE_LINE1,TLE_LINE2,SEMIMAJOR_AXIS,PERIOD,APOGEE,PERIGEE,DECAYED
52645.0,STARLINK-3973,PAYLOAD,2022-08-18 22:00:00,15.15974512,0.000188,53.2173,329.597,41.0211,126.4496,-0.0597759999999999,-0.01075566,0.0,0 STARLINK-3973,1 52645U 22052AZ  22230.91667824 -.01075566  00000-0 -59776-1 0  9992,2 52645  53.2173 329.5970 0001880  41.0211 126.4496 15.15974512  1302,6896.159000000002,94.988,519.32,516.727,0.0
52645.0,STARLINK-3973,PAYLOAD,2022-08-19 04:00:01,15.15403785,0.0001774,53.2173,328.4627,39.1555,53.2432,-0.0606919999999999,-0.01074446,0.0,0 STARLINK-3973,1 52645U 22052AZ  22231.16668981 -.01074446  00000-0 -60692-1 0  9990,2 52645  53.2173 328.4627 0001774  39.1555  53.2432 15.15403785 15479,6897.89,95.024,520.979,518.531,0.0
52645.0,STARLINK-3973,PAYLOAD,2022-08-19 14:00:01,15.14454834,0.0002169,53.2173,326.5786,34.614000000000004,171.3516,-0.0623409999999999,-0.01074316,0.0,0 STARLINK-3973,1 52645U 22052AZ  22231.58334491 -.01074316  00000-0 -62341-1 0  9991,2 52645  53.2173 326.5786 0002169  34.6140 171.3516 15.14454834  1305,6900.771,95.084,524.133,521.139,0.0
52645.0,STARLINK-3973,PAYLOAD,2022-08-19 20:00:01,15.13884643,0.0001950999999999,53.2172,325.4477,37.0737,92.3872,-0.063284,-0.01073134,0.0,0 STARLINK-3973,1 52645U 22052AZ  22231.83334491 -.01073134  00000-0 -63284-1 0  9993,2 52645  53.2172 325.4477 0001951  37.0737  92.3872 15.13884643 15571,6902.504,95.12,525.715,523.0219999999998,0.0
52645.0,STARLINK-3973,PAYLOAD,2022-08-19 22:00:00,15.13696576,0.0001851999999999,53.2173,325.0708,42.0024,181.8422,-0.063836,-0.01076472,0.0,0 STARLINK-3973,1 52645U 22052AZ  22231.91667824 -.01076472  00000-0 -63836-1 0  9992,2 52645  53.2173 325.0708 0001852  42.0024 181.8422 15.13696576  1307,6903.075,95.131,526.219,523.6619999999998,0.0
52645.0,STARLINK-3973,PAYLOAD,2022-08-20 12:00:00,15.12364013,0.0001916,53.2174,322.4384,42.07899999999999,120.8584,-0.065941,-0.01071414,0.0,0 STARLINK-3973,1 52645U 22052AZ  22232.50001157 -.01071414  00000-0 -65941-1 0  9999,2 52645  53.2174 322.4384 0001916  42.0790 120.8584 15.12364013 15674,6907.13,95.215,530.318,527.6709999999998,0.0
52645.0,STARLINK-3973,PAYLOAD,2022-08-20 14:00:01,15.12176076,0.0001797,53.2174,322.0632,45.0558,211.8079,-0.0664309999999999,-0.01073514,0.0,0 STARLINK-3973,1 52645U 22052AZ  22232.58334491 -.01073514  00000-0 -66431-1 0  9995,2 52645  53.2174 322.0632 0001797  45.0558 211.8079 15.12176076  1303,6907.7019999999975,95.227,530.808,528.326,0.0
52645.0,STARLINK-3973,PAYLOAD,2022-08-20 22:00:00,15.114185,0.0001604,53.2174,320.5606,49.924,222.0805,-0.068114,-0.01077295,0.0,0 STARLINK-3973,1 52645U 22052AZ  22232.91667824 -.01077295  00000-0 -68114-1 0  9991,2 52645  53.2174 320.5606 0001604  49.9240 222.0805 15.11418500  1306,6910.01,95.275,532.984,530.7669999999998,0.0
52645.0,STARLINK-3973,PAYLOAD,2022-08-21 04:00:00,15.10847792,0.0001999,53.2173,319.4346,37.9455,154.8165,-0.069109,-0.01075957,0.0,0 STARLINK-3973,1 52645U 22052AZ  22233.16667824 -.01075957  00000-0 -69109-1 0  9997,2 52645  53.2173 319.4346 0001999  37.9455 154.8165 15.10847792 15770,6911.75,95.311,534.997,532.234,0.0
52645.0,STARLINK-3973,PAYLOAD,2022-08-21 14:00:01,15.09844673,0.0001764,53.2176,317.5633,36.1298,263.4289,-0.062122,-0.00938625,0.0,0 STARLINK-3973,1 52645U 22052AZ  22233.58334491 -.00938625  00000-0 -62122-1 0  9991,2 52645  53.2176 317.5633 0001764  36.1298 263.4289 15.09844673  1308,6914.811,95.374,537.896,535.456,0.0
52645.0,STARLINK-3973,PAYLOAD,2022-08-21 20:00:01,15.09222061,0.0001737,53.2172,316.4395,36.7131,182.2338,-0.031891,-0.00484691,0.0,0 STARLINK-3973,1 52645U 22052AZ  22233.83334491 -.00484691  00000-0 -31891-1 0  9997,2 52645  53.2172 316.4395 0001737  36.7131 182.2338 15.09222061 15870,6916.7130000000025,95.413,539.779,537.376,0.0
52645.0,STARLINK-3973,PAYLOAD,2022-08-21 22:00:00,15.09080472,0.000172,53.2174,316.0649,38.3015,273.6581,-0.022452,-0.00343209,0.0,0 STARLINK-3973,1 52645U 22052AZ  22233.91667824 -.00343209  00000-0 -22452-1 0  9997,2 52645  53.2174 316.0649 0001720  38.3015 273.6581 15.09080472  1307,6917.145,95.422,540.2,537.821,0.0
52645.0,STARLINK-3973,PAYLOAD,2022-08-22 04:00:00,15.08836441,0.000184,53.2174,314.9416,40.7596,190.0321,-3.0102e-05,-7.67e-06,0.0,0 STARLINK-3973,1 52645U 22052AZ  22234.16667824 -.00000767  00000-0 -30102-4 0  9998,2 52645  53.2174 314.9416 0001840  40.7596 190.0321 15.08836441 15921,6917.891,95.438,541.029,538.4830000000002,0.0
52645.0,STARLINK-3973,PAYLOAD,2022-08-22 12:00:00,15.08844657,0.0001846,53.219,313.4371,40.3053,202.0945,-0.00024828,-4.238e-05,0.0,0 STARLINK-3973,1 52645U 22052AZ  22234.50001157 -.00004238  00000-0 -24828-3 0  9991,2 52645  53.2190 313.4371 0001846  40.3053 202.0945 15.08844657  1304,6917.866,95.437,541.008,538.4540000000002,0.0
52645.0,STARLINK-3973,PAYLOAD,2022-08-22 22:00:00,15.08858701,0.0001781999999999,53.2188,311.5659,42.34,304.5443,-0.0058236,-0.00091839,0.0,0 STARLINK-3973,1 52645U 22052AZ  22234.91667824 -.00091839  00000-0 -58236-2 0  9997,2 52645  53.2188 311.5659 0001782  42.3400 304.5443 15.08858701  1302,6917.823,95.436,540.9209999999998,538.455,0.0
52645.0,STARLINK-3973,PAYLOAD,2022-08-23 04:00:00,15.08797397,0.0001701,53.2187,310.443,46.8074,218.7731,4.192600000000001e-05,3.79e-06,0.0,0 STARLINK-3973,1 52645U 22052AZ  22235.16667824  .00000379  00000-0  41926-4 0  9992,2 52645  53.2187 310.4430 0001701  46.8074 218.7731 15.08797397 16072,6918.011,95.44,541.052,538.6990000000002,0.0
52645.0,STARLINK-3973,PAYLOAD,2022-08-23 14:00:01,15.08765636,0.0001940999999999,53.2187,308.575,42.7003,327.3107,0.0046123,0.00073735,0.0,0 STARLINK-3973,1 52645U 22052AZ  22235.58334491  .00073735  00000-0  46123-2 0  9997,2 52645  53.2187 308.5750 0001941  42.7003 327.3107 15.08765636  1303,6918.108,95.442,541.316,538.63,0.0
52645.0,STARLINK-3973,PAYLOAD,2022-08-23 22:00:01,15.08829914,0.0001867,53.2183,307.0774,45.7423,335.869,-0.0013398,-0.00021542,0.0,0 STARLINK-3973,1 52645U 22052AZ  22235.91668981 -.00021542  00000-0 -13398-2 0  9997,2 52645  53.2183 307.0774 0001867  45.7423 335.8690 15.08829914  1306,6917.911,95.438,541.068,538.485,0.0
52645.0,STARLINK-3973,PAYLOAD,2022-08-24 04:00:00,15.08814551,0.0001801,53.2182,305.9547,49.3133,250.9186,0.001883,0.00029786,0.0,0 STARLINK-3973,1 52645U 22052AZ  22236.16667824  .00029786  00000-0  18830-2 0  9992,2 52645  53.2182 305.9547 0001801  49.3133 250.9186 15.08814551 16221,6917.958000000001,95.439,541.069,538.577,0.0
52645.0,STARLINK-3973,PAYLOAD,2022-08-24 14:00:01,15.08816569,0.0001963,53.2182,304.0866,42.2916,2.4154,0.0039562,0.000632,0.0,0 STARLINK-3973,1 52645U 22052AZ  22236.58334491  .00063200  00000-0  39562-2 0  9993,2 52645  53.2182 304.0866 0001963  42.2916   2.4154 15.08816569  1304,6917.9519999999975,95.439,541.175,538.4590000000002,0.0
52645.0,STARLINK-3973,PAYLOAD,2022-08-24 22:00:00,15.08862926,0.0001824,53.218,302.5887,43.4125,12.8912,-0.00080568,-0.00013096,0.0,0 STARLINK-3973,1 52645U 22052AZ  22236.91667824 -.00013096  00000-0 -80568-3 0  9992,2 52645  53.2180 302.5887 0001824  43.4125  12.8912 15.08862926  1304,6917.81,95.436,540.937,538.414,0.0
52645.0,STARLINK-3973,PAYLOAD,2022-08-25 12:00:00,15.08859735,0.0002004,53.2178,299.9715,41.9099,304.7292,1.302e-05,-8.1e-07,0.0,0 STARLINK-3973,1 52645U 22052AZ  22237.50001157 -.00000081  00000-0  13020-4 0  9998,2 52645  53.2178 299.9715 0002004  41.9099 304.7292 15.08859735 16432,6917.82,95.436,541.071,538.299,0.0
52645.0,STARLINK-3973,PAYLOAD,2022-08-25 14:00:01,15.08848671,0.0001998,53.2178,299.5977,40.3017,39.2462,0.0014613,0.00023051,0.0,0 STARLINK-3973,1 52645U 22052AZ  22237.58334491  .00023051  00000-0  14613-2 0  9994,2 52645  53.2178 299.5977 0001998  40.3017  39.2462 15.08848671  1308,6917.854,95.437,541.101,538.337,0.0
52645.0,STARLINK-3973,PAYLOAD,2022-08-25 22:00:00,15.08853926,0.0001823,53.2178,298.0997,41.2989,49.8711,-0.0016909,-0.00027109,0.0,0 STARLINK-3973,1 52645U 22052AZ  22237.91667824 -.00027109  00000-0 -16909-2 0  9990,2 52645  53.2178 298.0997 0001823  41.2989  49.8711 15.08853926  1302,6917.8380000000025,95.437,540.964,538.442,0.0
52645.0,STARLINK-3973,PAYLOAD,2022-08-26 12:00:00,15.08838271,0.0002041,53.2177,295.4826,39.6598,341.8126,0.00051009,7.839e-05,0.0,0 STARLINK-3973,1 52645U 22052AZ  22238.50001157  .00007839  00000-0  51009-3 0  9994,2 52645  53.2177 295.4826 0002041  39.6598 341.8126 15.08838271 16580,6917.886,95.438,541.163,538.339,0.0
52645.0,STARLINK-3973,PAYLOAD,2022-08-26 14:00:01,15.08822513,0.0002037,53.2177,295.1086,38.0073,76.4322,0.0028414,0.00045202,0.0,0 STARLINK-3973,1 52645U 22052AZ  22238.58335648  .00045202  00000-0  28414-2 0  9996,2 52645  53.2177 295.1086 0002037  38.0073  76.4322 15.08822513  1306,6917.934,95.439,541.2080000000002,538.39,0.0
52645.0,STARLINK-3973,PAYLOAD,2022-08-26 22:00:00,15.08844771,0.0001884,53.2178,293.6107,40.6409,85.3328,0.00021146,3.079e-05,0.0,0 STARLINK-3973,1 52645U 22052AZ  22238.91667824  .00003079  00000-0  21146-3 0  9999,2 52645  53.2178 293.6107 0001884  40.6409  85.3328 15.08844771  1300,6917.866,95.437,541.034,538.427,0.0
52645.0,STARLINK-3973,PAYLOAD,2022-08-27 14:00:01,15.08811855,0.0002055,53.2177,290.6196,35.4866,113.7101,0.0025069,0.00039805,0.0,0 STARLINK-3973,1 52645U 22052AZ  22239.58334491  .00039805  00000-0  25069-2 0  9997,2 52645  53.2177 290.6196 0002055  35.4866 113.7101 15.08811855  1306,6917.965999999999,95.439,541.253,538.41,0.0
52645.0,STARLINK-3973,PAYLOAD,2022-08-27 22:00:00,15.08825704,0.0001875,53.2178,289.1216,38.6004,122.1798,0.00075526,0.00011748,0.0,0 STARLINK-3973,1 52645U 22052AZ  22239.91667824  .00011748  00000-0  75526-3 0  9993,2 52645  53.2178 289.1216 0001875  38.6004 122.1798 15.08825704  1305,6917.924,95.438,541.086,538.492,0.0
